HULIANWANG DIGUI-17     
1 62977U 25030G   26061.80630652 -.00000082  00000+0  89958-4 0  9999
2 62977  50.0048 257.1142 0000747 150.1918 209.8997 13.29337997 51716
HULIANWANG DIGUI-18     
1 62978U 25030H   26061.79793333 -.00000080  00000+0  94381-4 0  9998
2 62978  50.0052 257.0808 0000773 152.0069 208.0845 13.29338089 51713
HULIANWANG DIGUI-19     
1 62979U 25030J   26061.75597148 -.00000080  00000+0  94701-4 0  9997
2 62979  50.0037 257.4796 0000805 145.5960 214.4965 13.29341138 51702
HULIANWANG DIGUI-20     
1 63687U 25086A   26061.80400050  .00000058  00000+0  10108-3 0  9998
2 63687  86.5124 348.9539 0001693  92.1703 267.9625 13.24419894 40792
HULIANWANG DIGUI-21     
1 63688U 25086B   26061.81149568  .00000068  00000+0  12322-3 0  9995
2 63688  86.5152 348.9800 0001579  94.6426 265.4888 13.24421485 40789
HULIANWANG DIGUI-22     
1 63689U 25086C   26061.81905932  .00000067  00000+0  12205-3 0  9990
2 63689  86.5117 348.8813 0001767  92.5586 267.5750 13.24421192 40783
HULIANWANG DIGUI-23     
1 63690U 25086D   26061.83411852  .00000052  00000+0  87036-4 0  9996
2 63690  86.5159 349.0118 0001714  88.5714 271.5616 13.24421996 40780
HULIANWANG DIGUI-24     
1 63691U 25086E   26061.76617935  .00000043  00000+0  66969-4 0  9991
2 63691  86.5166 349.0611 0001735  92.8970 267.2363 13.24420118 40777
HULIANWANG DIGUI-25     
1 63692U 25086F   26061.77371405  .00000024  00000+0  22528-4 0  9994
2 63692  86.5105 348.8819 0001634  91.4646 268.6676 13.24421490 40777
HULIANWANG DIGUI-26     
1 63693U 25086G   26061.82648868  .00000072  00000+0  13412-3 0  9995
2 63693  86.5153 348.9895 0001701  97.0113 263.1215 13.24421047 40780
HULIANWANG DIGUI-27     
1 63694U 25086H   26061.78134438  .00000023  00000+0  19794-4 0  9990
2 63694  86.5114 348.9137 0001738  92.1970 267.9363 13.24419889 40770
HULIANWANG DIGUI-28     
1 63695U 25086J   26061.79637924  .00000044  00000+0  68433-4 0  9997
2 63695  86.5078 348.8140 0001734  91.9208 268.2125 13.24421194 40772
HULIANWANG DIGUI-29     
1 63696U 25086K   26061.78890075  .00000035  00000+0  48075-4 0  9995
2 63696  86.5106 348.8959 0001622  92.1820 267.9500 13.24420053 40778
HULIANWANG DIGUI-30     
1 64283U 25121A   26061.79627655  .00000034  00000+0  44070-4 0  9991
2 64283  86.4942  49.4523 0002004  79.8107 280.3253 13.24423274 36074
HULIANWANG DIGUI-31     
1 64284U 25121B   26061.78893711  .00000028  00000+0  30484-4 0  9996
2 64284  86.4963  49.5048 0002033  80.0097 280.1266 13.24419464 36073
HULIANWANG DIGUI-32     
1 64285U 25121C   26061.78103731  .00000032  00000+0  40686-4 0  9993
2 64285  86.4905  49.3384 0002017  82.0779 278.0584 13.24425103 36078
