[{"OBJECT_NAME":"HULIANWANG DIGUI-17","OBJECT_ID":"2025-030G","EPOCH":"2026-03-02T19:21:04.883328","MEAN_MOTION":13.29337997,"ECCENTRICITY":7.47e-5,"INCLINATION":50.0048,"RA_OF_ASC_NODE":257.1142,"ARG_OF_PERICENTER":150.1918,"MEAN_ANOMALY":209.8997,"EPHEMERIS_TYPE":0,"CLASSIFICATION_TYPE":"U","NORAD_CAT_ID":62977,"ELEMENT_SET_NO":999,"REV_AT_EPOCH":5171,"BSTAR":8.9958e-5,"MEAN_MOTION_DOT":-8.2e-7,"MEAN_MOTION_DDOT":0},{"OBJECT_NAME":"HULIANWANG DIGUI-18","OBJECT_ID":"2025-030H","EPOCH":"2026-03-02T19:09:01.439712","MEAN_MOTION":13.29338089,"ECCENTRICITY":7.73e-5,"INCLINATION":50.0052,"RA_OF_ASC_NODE":257.0808,"ARG_OF_PERICENTER":152.0069,"MEAN_ANOMALY":208.0845,"EPHEMERIS_TYPE":0,"CLASSIFICATION_TYPE":"U","NORAD_CAT_ID":62978,"ELEMENT_SET_NO":999,"REV_AT_EPOCH":5171,"BSTAR":9.4381e-5,"MEAN_MOTION_DOT":-8.0e-7,"MEAN_MOTION_DDOT":0},{"OBJECT_NAME":"HULIANWANG DIGUI-19","OBJECT_ID":"2025-030J","EPOCH":"2026-03-02T18:08:35.935872","MEAN_MOTION":13.29341138,"ECCENTRICITY":8.05e-5,"INCLINATION":50.0037,"RA_OF_ASC_NODE":257.4796,"ARG_OF_PERICENTER":145.596,"MEAN_ANOMALY":214.4965,"EPHEMERIS_TYPE":0,"CLASSIFICATION_TYPE":"U","NORAD_CAT_ID":62979,"ELEMENT_SET_NO":999,"REV_AT_EPOCH":5170,"BSTAR":9.4701e-5,"MEAN_MOTION_DOT":-8.0e-7,"MEAN_MOTION_DDOT":0},{"OBJECT_NAME":"HULIANWANG DIGUI-20","OBJECT_ID":"2025-086A","EPOCH":"2026-03-02T19:17:45.643200","MEAN_MOTION":13.24419894,"ECCENTRICITY":0.0001693,"INCLINATION":86.5124,"RA_OF_ASC_NODE":348.9539,"ARG_OF_PERICENTER":92.1703,"MEAN_ANOMALY":267.9625,"EPHEMERIS_TYPE":0,"CLASSIFICATION_TYPE":"U","NORAD_CAT_ID":63687,"ELEMENT_SET_NO":999,"REV_AT_EPOCH":4079,"BSTAR":0.00010108,"MEAN_MOTION_DOT":5.8e-7,"MEAN_MOTION_DDOT":0},{"OBJECT_NAME":"HULIANWANG DIGUI-21","OBJECT_ID":"2025-086B","EPOCH":"2026-03-02T19:28:33.226752","MEAN_MOTION":13.24421485,"ECCENTRICITY":0.0001579,"INCLINATION":86.5152,"RA_OF_ASC_NODE":348.98,"ARG_OF_PERICENTER":94.6426,"MEAN_ANOMALY":265.4888,"EPHEMERIS_TYPE":0,"CLASSIFICATION_TYPE":"U","NORAD_CAT_ID":63688,"ELEMENT_SET_NO":999,"REV_AT_EPOCH":4078,"BSTAR":0.00012322,"MEAN_MOTION_DOT":6.8e-7,"MEAN_MOTION_DDOT":0},{"OBJECT_NAME":"HULIANWANG DIGUI-22","OBJECT_ID":"2025-086C","EPOCH":"2026-03-02T19:39:26.725248","MEAN_MOTION":13.24421192,"ECCENTRICITY":0.0001767,"INCLINATION":86.5117,"RA_OF_ASC_NODE":348.8813,"ARG_OF_PERICENTER":92.5586,"MEAN_ANOMALY":267.575,"EPHEMERIS_TYPE":0,"CLASSIFICATION_TYPE":"U","NORAD_CAT_ID":63689,"ELEMENT_SET_NO":999,"REV_AT_EPOCH":4078,"BSTAR":0.00012205,"MEAN_MOTION_DOT":6.7e-7,"MEAN_MOTION_DDOT":0},{"OBJECT_NAME":"HULIANWANG DIGUI-23","OBJECT_ID":"2025-086D","EPOCH":"2026-03-02T20:01:07.840128","MEAN_MOTION":13.24421996,"ECCENTRICITY":0.0001714,"INCLINATION":86.5159,"RA_OF_ASC_NODE":349.0118,"ARG_OF_PERICENTER":88.5714,"MEAN_ANOMALY":271.5616,"EPHEMERIS_TYPE":0,"CLASSIFICATION_TYPE":"U","NORAD_CAT_ID":63690,"ELEMENT_SET_NO":999,"REV_AT_EPOCH":4078,"BSTAR":8.7036e-5,"MEAN_MOTION_DOT":5.2e-7,"MEAN_MOTION_DDOT":0},{"OBJECT_NAME":"HULIANWANG DIGUI-24","OBJECT_ID":"2025-086E","EPOCH":"2026-03-02T18:23:17.895840","MEAN_MOTION":13.24420118,"ECCENTRICITY":0.0001735,"INCLINATION":86.5166,"RA_OF_ASC_NODE":349.0611,"ARG_OF_PERICENTER":92.897,"MEAN_ANOMALY":267.2363,"EPHEMERIS_TYPE":0,"CLASSIFICATION_TYPE":"U","NORAD_CAT_ID":63691,"ELEMENT_SET_NO":999,"REV_AT_EPOCH":4077,"BSTAR":6.6969e-5,"MEAN_MOTION_DOT":4.3e-7,"MEAN_MOTION_DDOT":0},{"OBJECT_NAME":"HULIANWANG DIGUI-25","OBJECT_ID":"2025-086F","EPOCH":"2026-03-02T18:34:08.893920","MEAN_MOTION":13.2442149,"ECCENTRICITY":0.0001634,"INCLINATION":86.5105,"RA_OF_ASC_NODE":348.8819,"ARG_OF_PERICENTER":91.4646,"MEAN_ANOMALY":268.6676,"EPHEMERIS_TYPE":0,"CLASSIFICATION_TYPE":"U","NORAD_CAT_ID":63692,"ELEMENT_SET_NO":999,"REV_AT_EPOCH":4077,"BSTAR":2.2528e-5,"MEAN_MOTION_DOT":2.4e-7,"MEAN_MOTION_DDOT":0},{"OBJECT_NAME":"HULIANWANG DIGUI-26","OBJECT_ID":"2025-086G","EPOCH":"2026-03-02T19:50:08.621952","MEAN_MOTION":13.24421047,"ECCENTRICITY":0.0001701,"INCLINATION":86.5153,"RA_OF_ASC_NODE":348.9895,"ARG_OF_PERICENTER":97.0113,"MEAN_ANOMALY":263.1215,"EPHEMERIS_TYPE":0,"CLASSIFICATION_TYPE":"U","NORAD_CAT_ID":63693,"ELEMENT_SET_NO":999,"REV_AT_EPOCH":4078,"BSTAR":0.00013412,"MEAN_MOTION_DOT":7.2e-7,"MEAN_MOTION_DDOT":0},{"OBJECT_NAME":"HULIANWANG DIGUI-27","OBJECT_ID":"2025-086H","EPOCH":"2026-03-02T18:45:08.154432","MEAN_MOTION":13.24419889,"ECCENTRICITY":0.0001738,"INCLINATION":86.5114,"RA_OF_ASC_NODE":348.9137,"ARG_OF_PERICENTER":92.197,"MEAN_ANOMALY":267.9363,"EPHEMERIS_TYPE":0,"CLASSIFICATION_TYPE":"U","NORAD_CAT_ID":63694,"ELEMENT_SET_NO":999,"REV_AT_EPOCH":4077,"BSTAR":1.9794e-5,"MEAN_MOTION_DOT":2.3e-7,"MEAN_MOTION_DDOT":0},{"OBJECT_NAME":"HULIANWANG DIGUI-28","OBJECT_ID":"2025-086J","EPOCH":"2026-03-02T19:06:47.166336","MEAN_MOTION":13.24421194,"ECCENTRICITY":0.0001734,"INCLINATION":86.5078,"RA_OF_ASC_NODE":348.814,"ARG_OF_PERICENTER":91.9208,"MEAN_ANOMALY":268.2125,"EPHEMERIS_TYPE":0,"CLASSIFICATION_TYPE":"U","NORAD_CAT_ID":63695,"ELEMENT_SET_NO":999,"REV_AT_EPOCH":4077,"BSTAR":6.8433e-5,"MEAN_MOTION_DOT":4.4e-7,"MEAN_MOTION_DDOT":0},{"OBJECT_NAME":"HULIANWANG DIGUI-29","OBJECT_ID":"2025-086K","EPOCH":"2026-03-02T18:56:01.024800","MEAN_MOTION":13.24420053,"ECCENTRICITY":0.0001622,"INCLINATION":86.5106,"RA_OF_ASC_NODE":348.8959,"ARG_OF_PERICENTER":92.182,"MEAN_ANOMALY":267.95,"EPHEMERIS_TYPE":0,"CLASSIFICATION_TYPE":"U","NORAD_CAT_ID":63696,"ELEMENT_SET_NO":999,"REV_AT_EPOCH":4077,"BSTAR":4.8075e-5,"MEAN_MOTION_DOT":3.5e-7,"MEAN_MOTION_DDOT":0},{"OBJECT_NAME":"HULIANWANG DIGUI-30","OBJECT_ID":"2025-121A","EPOCH":"2026-03-02T19:06:38.293920","MEAN_MOTION":13.24423274,"ECCENTRICITY":0.0002004,"INCLINATION":86.4942,"RA_OF_ASC_NODE":49.4523,"ARG_OF_PERICENTER":79.8107,"MEAN_ANOMALY":280.3253,"EPHEMERIS_TYPE":0,"CLASSIFICATION_TYPE":"U","NORAD_CAT_ID":64283,"ELEMENT_SET_NO":999,"REV_AT_EPOCH":3607,"BSTAR":4.407e-5,"MEAN_MOTION_DOT":3.4e-7,"MEAN_MOTION_DDOT":0},{"OBJECT_NAME":"HULIANWANG DIGUI-31","OBJECT_ID":"2025-121B","EPOCH":"2026-03-02T18:56:04.166304","MEAN_MOTION":13.24419464,"ECCENTRICITY":0.0002033,"INCLINATION":86.4963,"RA_OF_ASC_NODE":49.5048,"ARG_OF_PERICENTER":80.0097,"MEAN_ANOMALY":280.1266,"EPHEMERIS_TYPE":0,"CLASSIFICATION_TYPE":"U","NORAD_CAT_ID":64284,"ELEMENT_SET_NO":999,"REV_AT_EPOCH":3607,"BSTAR":3.0484e-5,"MEAN_MOTION_DOT":2.8e-7,"MEAN_MOTION_DDOT":0},{"OBJECT_NAME":"HULIANWANG DIGUI-32","OBJECT_ID":"2025-121C","EPOCH":"2026-03-02T18:44:41.623584","MEAN_MOTION":13.24425103,"ECCENTRICITY":0.0002017,"INCLINATION":86.4905,"RA_OF_ASC_NODE":49.3384,"ARG_OF_PERICENTER":82.0779,"MEAN_ANOMALY":278.0584,"EPHEMERIS_TYPE":0,"CLASSIFICATION_TYPE":"U","NORAD_CAT_ID":64285,"ELEMENT_SET_NO":999,"REV_AT_EPOCH":3607,"BSTAR":4.0686e-5,"MEAN_MOTION_DOT":3.2e-7,"MEAN_MOTION_DDOT":0}]
